OBJECT_NAME,OBJECT_ID,EPOCH,MEAN_MOTION,ECCENTRICITY,INCLINATION,RA_OF_ASC_NODE,ARG_OF_PERICENTER,MEAN_ANOMALY,EPHEMERIS_TYPE,CLASSIFICATION_TYPE,NORAD_CAT_ID,ELEMENT_SET_NO,REV_AT_EPOCH,BSTAR,MEAN_MOTION_DOT,MEAN_MOTION_DDOT
ONEWEB-0248,2021-045AH,2025-02-08T19:18:38.397312,13.15553937,.0002455,87.9112,357.4291,90.0465,270.0946,0,U,48798,999,18066,-.2182E-2,-.809E-5,0
ONEWEB-0225,2021-045AJ,2025-02-08T19:50:36.447936,13.15547132,.0002092,87.9116,357.4477,90.7116,269.4254,0,U,48799,999,18069,-.42174E-3,-.146E-5,0
ONEWEB-0215,2021-045AK,2025-02-08T13:38:40.442496,13.15550336,.0002466,87.9110,357.4598,95.2877,264.8535,0,U,48800,999,17939,.35537E-3,.147E-5,0
ONEWEB-0216,2021-045AL,2025-02-08T19:20:56.700384,13.15550000,.000167,87.9112,357.4566,87.2016,272.9305,0,U,48801,999,18055,.11051E-3,.54E-6,0
ONEWEB-0239,2021-045AM,2025-02-08T13:59:13.798176,13.15550311,.0002651,87.9120,357.4974,91.8911,268.2522,0,U,48802,999,17944,-.29098E-5,.12E-6,0
FENGYUN 4B,2021-047A,2025-02-08T14:54:55.751904,1.00276332,.0011785,0.1327,82.6662,358.9931,25.5848,0,U,48808,999,1362,0,-.338E-5,0
SXM-8,2021-049A,2025-01-26T13:54:42.740640,1.00277863,.0003958,0.0147,48.5831,1.3886,199.6306,0,U,48838,999,1351,0,-.189E-5,0
NAVSTAR 81 (USA 319),2021-054A,2025-02-08T14:09:31.999680,2.00571258,.0019063,55.3440,352.2694,231.3784,253.9158,0,U,48859,999,2685,0,-.108E-5,0
YAOGAN-30 10A,2021-055A,2025-02-08T20:05:11.817312,14.98704407,.0003767,34.9945,270.9255,68.0695,292.0412,0,U,48860,999,19903,.43882E-3,.5357E-4,0
YAOGAN-30 10B,2021-055B,2025-02-08T19:33:25.874784,14.98695600,.0003805,34.9941,270.6958,82.0988,278.0151,0,U,48861,999,19901,.44236E-3,.5399E-4,0
YAOGAN-30 10C,2021-055D,2025-02-08T18:42:57.122784,14.98764298,.0002999,34.9951,270.5236,176.5187,183.5542,0,U,48863,999,19872,.4247E-3,.5192E-4,0
TIANQI-14,2021-055E,2025-02-08T19:25:23.234880,15.05332970,.0005474,34.9991,238.5725,287.5876,72.4235,0,U,48864,999,19911,.69199E-3,.10102E-3,0
COSMOS 2550,2021-056A,2025-02-08T19:03:23.280480,15.33838834,.0008305,67.1425,152.5193,269.8902,90.1301,0,U,48865,999,20306,.30602E-5,-.91E-6,0
BRIK-II,2021-058F,2025-02-08T22:10:21.608544,15.51946475,.0018304,60.6659,276.5874,133.6546,226.6075,0,U,48876,999,20158,.69452E-3,.42281E-3,0
STARLINK-3004,2021-059B,2025-02-08T20:09:40.030560,15.01262610,.0001531,97.6612,166.8458,242.5956,117.5113,0,U,48880,999,19970,.69912E-4,.839E-5,0
STARLINK-3005,2021-059C,2025-02-08T20:00:04.981536,15.01258301,.0000568,97.6628,166.7990,114.1735,245.9548,0,U,48881,999,19971,.11106E-3,.1368E-4,0
TYVAK-0173,2021-059P,2025-02-08T12:41:29.384448,14.78705231,.0008199,95.9799,235.0665,262.0160,98.0125,0,U,48892,999,19520,.59166E-3,.4312E-4,0
TUBIN,2021-059X,2025-02-08T19:17:23.118720,15.47286547,.0005097,97.6647,200.5060,324.3485,35.7423,0,U,48900,999,20128,.8138E-3,.41577E-3,0
MANDRAKE 2 ABLE,2021-059AE,2025-02-08T09:42:42.092640,15.34671077,.0006855,97.6708,195.3688,348.0047,12.1031,0,U,48907,999,20091,.49103E-3,.16443E-3,0
MANDRAKE 2 BAKER,2021-059AF,2025-02-08T09:25:30.861120,15.35658122,.0006081,97.6722,196.2094,334.7867,25.3079,0,U,48908,999,20095,.57319E-3,.19828E-3,0
PACE-1,2021-059AG,2025-02-08T09:59:36.828672,15.39224928,.0005956,97.6615,196.1563,329.0552,31.0341,0,U,48909,999,20105,.57558E-3,.22352E-3,0
YAM-2,2021-059AJ,2025-02-08T11:27:42.544800,15.54489802,.0004979,97.6636,204.2422,311.4819,48.6006,0,U,48911,999,20147,.78433E-3,.51791E-3,0
YAM-3,2021-059AN,2025-02-08T09:02:47.655744,15.33900751,.0007001,97.6661,195.2230,332.7979,27.2895,0,U,48915,999,20092,.47122E-3,.15394E-3,0
ICEYE-X13,2021-059AP,2025-02-08T19:18:47.217024,15.45949096,.0003211,97.6442,194.4813,356.9053,3.2175,0,U,48916,999,20093,.97297E-3,.47517E-3,0
ICEYE-X15,2021-059AQ,2025-02-08T18:25:04.589472,15.61804548,.0004264,97.6354,210.3765,241.5068,118.5760,0,U,48917,999,20198,.72238E-3,.62802E-3,0
ICEYE-X11,2021-059AR,2025-02-08T21:21:27.266688,15.37880876,.0011841,97.6424,197.1683,339.1027,20.9732,0,U,48918,999,20115,.78867E-3,.29425E-3,0
FARADAY_PHOENIX,2021-059AX,2025-02-08T10:25:21.073152,15.37160514,.0010901,97.6698,198.7490,324.6375,35.4145,0,U,48924,999,20111,.48885E-3,.17752E-3,0
HAWK-3B,2021-059BE,2025-02-08T10:20:29.025600,15.39440500,.0009271,97.6495,197.7835,329.1945,30.8755,0,U,48931,999,20124,.49723E-3,.19443E-3,0
HAWK-3C,2021-059BX,2025-02-08T10:20:09.549312,15.39458149,.0010048,97.6745,202.1703,332.4392,27.6319,0,U,48948,999,20124,.49569E-3,.19398E-3,0
DEMO8 (TENZING),2021-059CA,2025-02-08T10:21:31.447008,15.35473099,.0010474,97.6757,198.5033,337.2101,22.8675,0,U,48951,999,20107,.46633E-3,.16031E-3,0
ASTROCAST-0204,2021-059CB,2025-02-08T16:58:26.268672,15.87134069,.001055,97.6552,208.8042,307.2917,52.7391,0,U,48952,999,20178,.29896E-2,.850724E-2,0
ARTHUR-1,2021-059CC,2025-02-08T19:00:38.092320,15.48493781,.000677,97.6600,205.3439,306.1308,53.9314,0,U,48953,999,20161,.72331E-3,.38522E-3,0
ASTROCAST-0201,2021-059CD,2025-02-08T16:59:16.864512,15.44281850,.0007671,97.6454,200.8292,321.4139,38.6559,0,U,48954,999,20137,.66689E-3,.30704E-3,0
ASTROCAST-0203,2021-059CE,2025-02-08T09:38:39.710400,15.44192070,.0008251,97.6459,200.0343,318.5290,41.5331,0,U,48955,999,20132,.57957E-3,.26581E-3,0
DEMO9 (AURORA),2021-059CF,2025-02-08T09:32:16.958400,15.51906466,.0008085,97.6637,205.0676,308.5091,51.5435,0,U,48956,999,20152,.7171E-3,.4312E-3,0
HAWK-3A,2021-059CG,2025-02-08T10:19:57.074016,15.39456554,.0009939,97.6621,199.9876,325.9759,34.0848,0,U,48957,999,20124,.49263E-3,.19276E-3,0
SHERPA-FX2 & TAGSAT-2,2021-059CH,2025-02-08T09:40:38.277120,15.36500423,.0010418,97.6676,198.9849,328.9901,31.0726,0,U,48958,999,20113,.46172E-3,.16403E-3,0
ASTROCAST-0205,2021-059CK,2025-02-08T10:13:54.681312,15.44271227,.0008463,97.6444,200.3594,292.8523,67.1830,0,U,48960,999,20133,.59249E-3,.27253E-3,0
ASTROCAST-0202,2021-059CL,2025-02-08T10:01:54.654816,15.52352508,.0006828,97.6384,204.2075,308.5378,51.5261,0,U,48961,999,20157,.64642E-3,.39452E-3,0
NAPA-2,2021-059CN,2025-02-08T19:14:03.917472,15.38410736,.0008086,97.6624,195.5724,328.2217,31.8538,0,U,48963,999,20100,.72935E-3,.27637E-3,0
SPARTAN,2021-059CP,2025-02-08T09:09:14.839200,15.39957369,.000428,97.6630,198.0506,329.3602,30.7392,0,U,48964,999,20115,.58065E-3,.23093E-3,0
W-CUBE,2021-059CQ,2025-02-08T09:23:19.791456,15.50926708,.0006221,97.6615,201.0293,308.6219,51.4474,0,U,48965,999,20127,.79158E-3,.45969E-3,0
ONEWEB-0249,2021-060A,2025-02-08T12:40:06.001536,13.16595680,.000184,87.9128,327.1579,76.6794,283.4542,0,U,48967,999,17465,.56229E-4,.34E-6,0
ONEWEB-0250,2021-060B,2025-02-08T12:13:27.286176,13.25701000,.0002933,87.9128,326.5310,85.6185,274.5286,0,U,48968,999,17609,.10859E-3,.61E-6,0
ONEWEB-0252,2021-060D,2025-02-08T11:36:14.616864,13.16597002,.0001394,87.9130,327.1600,82.4310,277.6979,0,U,48970,999,17469,.41393E-3,.171E-5,0
ONEWEB-0253,2021-060E,2025-02-08T13:09:43.445664,13.16596947,.000186,87.9127,327.1542,85.8521,274.2823,0,U,48971,999,17463,.10353E-3,.52E-6,0
ONEWEB-0254,2021-060F,2025-02-08T13:23:26.615616,13.16596633,.0002217,87.9128,327.1342,86.5243,273.6141,0,U,48972,999,17463,.16282E-3,.75E-6,0
ONEWEB-0255,2021-060G,2025-02-08T12:28:41.922624,13.16595921,.0002064,87.9128,327.1753,85.1809,274.9558,0,U,48973,999,17470,-.12703E-3,-.36E-6,0
ONEWEB-0256,2021-060H,2025-02-08T13:06:19.285920,13.16593313,.0001619,87.9132,327.1807,78.8310,281.3003,0,U,48974,999,17467,.14338E-3,.68E-6,0
ONEWEB-0257,2021-060J,2025-02-08T12:03:36.626400,13.16595266,.0001801,87.9131,327.1537,85.5238,274.6098,0,U,48975,999,17462,.78534E-4,.43E-6,0
ONEWEB-0258,2021-060K,2025-02-08T12:05:52.775520,13.16596849,.0001851,87.9131,327.1811,77.8210,282.3128,0,U,48976,999,17463,.67879E-4,.39E-6,0
ONEWEB-0259,2021-060L,2025-02-08T11:56:46.555584,13.16596838,.000203,87.9129,327.1668,79.7421,280.3939,0,U,48977,999,17466,.24558E-3,.107E-5,0
ONEWEB-0260,2021-060M,2025-02-08T11:44:12.967872,13.16593053,.0001274,87.9130,327.1982,88.3380,271.7897,0,U,48978,999,17464,.39196E-3,.163E-5,0
ONEWEB-0261,2021-060N,2025-02-08T12:50:22.151904,13.16596492,.0001852,87.9130,327.1887,95.8666,264.2676,0,U,48979,999,17470,-.32809E-4,0,0
ONEWEB-0262,2021-060P,2025-02-08T12:21:52.506720,13.16595078,.0002109,87.9130,327.1500,78.5819,281.5548,0,U,48980,999,17466,-.12319E-3,-.34E-6,0
ONEWEB-0263,2021-060Q,2025-02-08T13:07:26.206176,13.16597187,.0002027,87.9132,327.1674,89.0902,271.0461,0,U,48981,999,17463,.14488E-3,.68E-6,0
ONEWEB-0264,2021-060R,2025-02-08T12:11:36.454848,13.16595754,.0001794,87.9131,327.1844,81.2998,278.8336,0,U,48982,999,17463,.32811E-4,.25E-6,0
ONEWEB-0266,2021-060T,2025-02-08T12:42:21.996000,13.16592543,.0001927,87.9128,327.1518,75.0527,285.0817,0,U,48984,999,17462,-.74963E-4,-.16E-6,0
ONEWEB-0267,2021-060U,2025-02-08T12:58:20.393184,13.16596146,.0001816,87.9127,327.1517,88.5502,271.5837,0,U,48985,999,17592,.21247E-3,.94E-6,0
ONEWEB-0268,2021-060V,2025-02-08T12:12:44.080992,13.16596933,.0001635,87.9131,327.1645,81.1509,278.9807,0,U,48986,999,17489,.38635E-4,.28E-6,0
ONEWEB-0269,2021-060W,2025-02-08T11:45:21.335328,13.16597582,.0001724,87.9132,327.2011,78.2332,281.8992,0,U,48987,999,17466,.28734E-3,.123E-5,0
ONEWEB-0270,2021-060X,2025-02-08T12:10:28.652448,13.16591994,.0002107,87.9130,327.1703,89.0649,271.0723,0,U,48988,999,17470,.16507E-2,.644E-5,0
ONEWEB-0271,2021-060Y,2025-02-08T11:52:12.299520,13.16598113,.0001868,87.9130,327.1523,89.1820,270.9525,0,U,48989,999,17599,.11372E-3,.56E-6,0
ONEWEB-0272,2021-060Z,2025-02-08T12:24:07.198272,13.16593639,.0001877,87.9131,327.1793,87.6015,272.5331,0,U,48990,999,17465,-.9739E-3,-.359E-5,0
ONEWEB-0273,2021-060AA,2025-02-08T12:56:03.747264,13.16596038,.0001956,87.9128,327.1601,82.4838,277.6515,0,U,48991,999,17463,.11754E-3,.58E-6,0
ONEWEB-0274,2021-060AB,2025-02-08T11:43:05.125728,13.16596424,.0001375,87.9137,327.1998,89.1817,270.9471,0,U,48992,999,17466,.29102E-3,.124E-5,0
ONEWEB-0275,2021-060AC,2025-02-08T13:16:35.292000,13.16594351,.0001765,87.9128,327.1519,83.7427,276.3905,0,U,48993,999,17460,.13155E-3,.63E-6,0
